[{"OBJECT_NAME":"STARLINK-36151","OBJECT_ID":"2025-299X","EPOCH":"2026-03-09T22:00:01.999584","MEAN_MOTION":15.36387486,"ECCENTRICITY":0.00011462,"INCLINATION":42.9991,"RA_OF_ASC_NODE":167.613,"ARG_OF_PERICENTER":265.1086,"MEAN_ANOMALY":42.0682,"EPHEMERIS_TYPE":0,"CLASSIFICATION_TYPE":"U","NORAD_CAT_ID":67123,"ELEMENT_SET_NO":999,"REV_AT_EPOCH":590,"BSTAR":-0.062696381,"MEAN_MOTION_DOT":-0.02019994,"MEAN_MOTION_DDOT":0},{"OBJECT_NAME":"OBJECT AB","OBJECT_ID":"2025-313AB","EPOCH":"2026-03-09T21:33:15.622272","MEAN_MOTION":15.20494709,"ECCENTRICITY":0.00144255,"INCLINATION":97.4026,"RA_OF_ASC_NODE":145.1102,"ARG_OF_PERICENTER":5.4731,"MEAN_ANOMALY":354.6659,"EPHEMERIS_TYPE":0,"CLASSIFICATION_TYPE":"U","NORAD_CAT_ID":67273,"ELEMENT_SET_NO":999,"REV_AT_EPOCH":1084,"BSTAR":0.00020492613,"MEAN_MOTION_DOT":4.42e-5,"MEAN_MOTION_DDOT":0}]
